<?xml version="1.0" encoding="UTF-8"?>
<ndm xmlns:xsi="http://www.w3.org/2001/XMLSchema-instance" xsi:noNamespaceSchemaLocation="https://sanaregistry.org/r/ndmxml_unqualified/ndmxml-2.0.0-master-2.0.xsd">
<omm id="CCSDS_OMM_VERS" version="2.0">
<header><CREATION_DATE/><ORIGINATOR/></header><body><segment><metadata><OBJECT_NAME>IRIDIUM 111</OBJECT_NAME><OBJECT_ID>2017-003K</OBJECT_ID><CENTER_NAME>EARTH</CENTER_NAME><REF_FRAME>TEME</REF_FRAME><TIME_SYSTEM>UTC</TIME_SYSTEM><MEAN_ELEMENT_THEORY>SGP4</MEAN_ELEMENT_THEORY></metadata><data><meanElements><EPOCH>2023-10-10T14:15:30.209760</EPOCH><MEAN_MOTION>14.34219146</MEAN_MOTION><ECCENTRICITY>.0002012</ECCENTRICITY><INCLINATION>86.3966</INCLINATION><RA_OF_ASC_NODE>138.2061</RA_OF_ASC_NODE><ARG_OF_PERICENTER>78.3564</ARG_OF_PERICENTER><MEAN_ANOMALY>281.7857</MEAN_ANOMALY></meanElements><tleParameters><EPHEMERIS_TYPE>0</EPHEMERIS_TYPE><CLASSIFICATION_TYPE>U</CLASSIFICATION_TYPE><NORAD_CAT_ID>41926</NORAD_CAT_ID><ELEMENT_SET_NO>999</ELEMENT_SET_NO><REV_AT_EPOCH>35270</REV_AT_EPOCH><BSTAR>.20593E-3</BSTAR><MEAN_MOTION_DOT>.597E-5</MEAN_MOTION_DOT><MEAN_MOTION_DDOT>0</MEAN_MOTION_DDOT></tleParameters></data></segment></body></omm>
<omm id="CCSDS_OMM_VERS" version="2.0">
<header><CREATION_DATE/><ORIGINATOR/></header><body><segment><metadata><OBJECT_NAME>IRIDIUM 113</OBJECT_NAME><OBJECT_ID>2017-039A</OBJECT_ID><CENTER_NAME>EARTH</CENTER_NAME><REF_FRAME>TEME</REF_FRAME><TIME_SYSTEM>UTC</TIME_SYSTEM><MEAN_ELEMENT_THEORY>SGP4</MEAN_ELEMENT_THEORY></metadata><data><meanElements><EPOCH>2023-10-10T18:48:02.955456</EPOCH><MEAN_MOTION>14.34220658</MEAN_MOTION><ECCENTRICITY>.0002234</ECCENTRICITY><INCLINATION>86.4036</INCLINATION><RA_OF_ASC_NODE>11.8568</RA_OF_ASC_NODE><ARG_OF_PERICENTER>90.4086</ARG_OF_PERICENTER><MEAN_ANOMALY>269.7366</MEAN_ANOMALY></meanElements><tleParameters><EPHEMERIS_TYPE>0</EPHEMERIS_TYPE><CLASSIFICATION_TYPE>U</CLASSIFICATION_TYPE><NORAD_CAT_ID>42803</NORAD_CAT_ID><ELEMENT_SET_NO>999</ELEMENT_SET_NO><REV_AT_EPOCH>33066</REV_AT_EPOCH><BSTAR>.25246E-3</BSTAR><MEAN_MOTION_DOT>.727E-5</MEAN_MOTION_DOT><MEAN_MOTION_DDOT>0</MEAN_MOTION_DDOT></tleParameters></data></segment></body></omm>
<omm id="CCSDS_OMM_VERS" version="2.0">
<header><CREATION_DATE/><ORIGINATOR/></header><body><segment><metadata><OBJECT_NAME>IRIDIUM 123</OBJECT_NAME><OBJECT_ID>2017-039B</OBJECT_ID><CENTER_NAME>EARTH</CENTER_NAME><REF_FRAME>TEME</REF_FRAME><TIME_SYSTEM>UTC</TIME_SYSTEM><MEAN_ELEMENT_THEORY>SGP4</MEAN_ELEMENT_THEORY></metadata><data><meanElements><EPOCH>2023-10-10T09:44:57.964416</EPOCH><MEAN_MOTION>14.34224106</MEAN_MOTION><ECCENTRICITY>.0002337</ECCENTRICITY><INCLINATION>86.3993</INCLINATION><RA_OF_ASC_NODE>43.5024</RA_OF_ASC_NODE><ARG_OF_PERICENTER>88.5466</ARG_OF_PERICENTER><MEAN_ANOMALY>271.5998</MEAN_ANOMALY></meanElements><tleParameters><EPHEMERIS_TYPE>0</EPHEMERIS_TYPE><CLASSIFICATION_TYPE>U</CLASSIFICATION_TYPE><NORAD_CAT_ID>42804</NORAD_CAT_ID><ELEMENT_SET_NO>999</ELEMENT_SET_NO><REV_AT_EPOCH>32937</REV_AT_EPOCH><BSTAR>.26114E-3</BSTAR><MEAN_MOTION_DOT>.751E-5</MEAN_MOTION_DOT><MEAN_MOTION_DDOT>0</MEAN_MOTION_DDOT></tleParameters></data></segment></body></omm>
<omm id="CCSDS_OMM_VERS" version="2.0">
<header><CREATION_DATE/><ORIGINATOR/></header><body><segment><metadata><OBJECT_NAME>IRIDIUM 120</OBJECT_NAME><OBJECT_ID>2017-039C</OBJECT_ID><CENTER_NAME>EARTH</CENTER_NAME><REF_FRAME>TEME</REF_FRAME><TIME_SYSTEM>UTC</TIME_SYSTEM><MEAN_ELEMENT_THEORY>SGP4</MEAN_ELEMENT_THEORY></metadata><data><meanElements><EPOCH>2023-10-10T11:57:02.673504</EPOCH><MEAN_MOTION>14.34221663</MEAN_MOTION><ECCENTRICITY>.0002124</ECCENTRICITY><INCLINATION>86.4023</INCLINATION><RA_OF_ASC_NODE>11.8855</RA_OF_ASC_NODE><ARG_OF_PERICENTER>91.8154</ARG_OF_PERICENTER><MEAN_ANOMALY>268.3285</MEAN_ANOMALY></meanElements><tleParameters><EPHEMERIS_TYPE>0</EPHEMERIS_TYPE><CLASSIFICATION_TYPE>U</CLASSIFICATION_TYPE><NORAD_CAT_ID>42805</NORAD_CAT_ID><ELEMENT_SET_NO>999</ELEMENT_SET_NO><REV_AT_EPOCH>33061</REV_AT_EPOCH><BSTAR>.19618E-3</BSTAR><MEAN_MOTION_DOT>.569E-5</MEAN_MOTION_DOT><MEAN_MOTION_DDOT>0</MEAN_MOTION_DDOT></tleParameters></data></segment></body></omm>
<omm id="CCSDS_OMM_VERS" version="2.0">
<header><CREATION_DATE/><ORIGINATOR/></header><body><segment><metadata><OBJECT_NAME>IRIDIUM 115</OBJECT_NAME><OBJECT_ID>2017-039D</OBJECT_ID><CENTER_NAME>EARTH</CENTER_NAME><REF_FRAME>TEME</REF_FRAME><TIME_SYSTEM>UTC</TIME_SYSTEM><MEAN_ELEMENT_THEORY>SGP4</MEAN_ELEMENT_THEORY></metadata><data><meanElements><EPOCH>2023-10-10T18:46:53.276448</EPOCH><MEAN_MOTION>14.43342142</MEAN_MOTION><ECCENTRICITY>.0002073</ECCENTRICITY><INCLINATION>86.4562</INCLINATION><RA_OF_ASC_NODE>11.7559</RA_OF_ASC_NODE><ARG_OF_PERICENTER>87.1320</ARG_OF_PERICENTER><MEAN_ANOMALY>273.0118</MEAN_ANOMALY></meanElements><tleParameters><EPHEMERIS_TYPE>0</EPHEMERIS_TYPE><CLASSIFICATION_TYPE>U</CLASSIFICATION_TYPE><NORAD_CAT_ID>42806</NORAD_CAT_ID><ELEMENT_SET_NO>999</ELEMENT_SET_NO><REV_AT_EPOCH>33285</REV_AT_EPOCH><BSTAR>.28464E-3</BSTAR><MEAN_MOTION_DOT>.979E-5</MEAN_MOTION_DOT><MEAN_MOTION_DDOT>0</MEAN_MOTION_DDOT></tleParameters></data></segment></body></omm>
<omm id="CCSDS_OMM_VERS" version="2.0">
<header><CREATION_DATE/><ORIGINATOR/></header><body><segment><metadata><OBJECT_NAME>IRIDIUM 118</OBJECT_NAME><OBJECT_ID>2017-039E</OBJECT_ID><CENTER_NAME>EARTH</CENTER_NAME><REF_FRAME>TEME</REF_FRAME><TIME_SYSTEM>UTC</TIME_SYSTEM><MEAN_ELEMENT_THEORY>SGP4</MEAN_ELEMENT_THEORY></metadata><data><meanElements><EPOCH>2023-10-10T13:51:34.446528</EPOCH><MEAN_MOTION>14.34219902</MEAN_MOTION><ECCENTRICITY>.0002142</ECCENTRICITY><INCLINATION>86.3993</INCLINATION><RA_OF_ASC_NODE>43.4331</RA_OF_ASC_NODE><ARG_OF_PERICENTER>93.7418</ARG_OF_PERICENTER><MEAN_ANOMALY>266.4023</MEAN_ANOMALY></meanElements><tleParameters><EPHEMERIS_TYPE>0</EPHEMERIS_TYPE><CLASSIFICATION_TYPE>U</CLASSIFICATION_TYPE><NORAD_CAT_ID>42807</NORAD_CAT_ID><ELEMENT_SET_NO>999</ELEMENT_SET_NO><REV_AT_EPOCH>32939</REV_AT_EPOCH><BSTAR>.29945E-3</BSTAR><MEAN_MOTION_DOT>.858E-5</MEAN_MOTION_DOT><MEAN_MOTION_DDOT>0</MEAN_MOTION_DDOT></tleParameters></data></segment></body></omm>
<omm id="CCSDS_OMM_VERS" version="2.0">
<header><CREATION_DATE/><ORIGINATOR/></header><body><segment><metadata><OBJECT_NAME>IRIDIUM 117</OBJECT_NAME><OBJECT_ID>2017-039F</OBJECT_ID><CENTER_NAME>EARTH</CENTER_NAME><REF_FRAME>TEME</REF_FRAME><TIME_SYSTEM>UTC</TIME_SYSTEM><MEAN_ELEMENT_THEORY>SGP4</MEAN_ELEMENT_THEORY></metadata><data><meanElements><EPOCH>2023-10-10T14:18:58.368096</EPOCH><MEAN_MOTION>14.34222814</MEAN_MOTION><ECCENTRICITY>.0002063</ECCENTRICITY><INCLINATION>86.3991</INCLINATION><RA_OF_ASC_NODE>43.3916</RA_OF_ASC_NODE><ARG_OF_PERICENTER>90.3584</ARG_OF_PERICENTER><MEAN_ANOMALY>269.7848</MEAN_ANOMALY></meanElements><tleParameters><EPHEMERIS_TYPE>0</EPHEMERIS_TYPE><CLASSIFICATION_TYPE>U</CLASSIFICATION_TYPE><NORAD_CAT_ID>42808</NORAD_CAT_ID><ELEMENT_SET_NO>999</ELEMENT_SET_NO><REV_AT_EPOCH>32942</REV_AT_EPOCH><BSTAR>.26409E-3</BSTAR><MEAN_MOTION_DOT>.759E-5</MEAN_MOTION_DOT><MEAN_MOTION_DDOT>0</MEAN_MOTION_DDOT></tleParameters></data></segment></body></omm>
<omm id="CCSDS_OMM_VERS" version="2.0">
<header><CREATION_DATE/><ORIGINATOR/></header><body><segment><metadata><OBJECT_NAME>IRIDIUM 126</OBJECT_NAME><OBJECT_ID>2017-039G</OBJECT_ID><CENTER_NAME>EARTH</CENTER_NAME><REF_FRAME>TEME</REF_FRAME><TIME_SYSTEM>UTC</TIME_SYSTEM><MEAN_ELEMENT_THEORY>SGP4</MEAN_ELEMENT_THEORY></metadata><data><meanElements><EPOCH>2023-10-10T14:55:30.107136</EPOCH><MEAN_MOTION>14.34219843</MEAN_MOTION><ECCENTRICITY>.0002211</ECCENTRICITY><INCLINATION>86.3995</INCLINATION><RA_OF_ASC_NODE>43.4165</RA_OF_ASC_NODE><ARG_OF_PERICENTER>86.2374</ARG_OF_PERICENTER><MEAN_ANOMALY>273.9075</MEAN_ANOMALY></meanElements><tleParameters><EPHEMERIS_TYPE>0</EPHEMERIS_TYPE><CLASSIFICATION_TYPE>U</CLASSIFICATION_TYPE><NORAD_CAT_ID>42809</NORAD_CAT_ID><ELEMENT_SET_NO>999</ELEMENT_SET_NO><REV_AT_EPOCH>32940</REV_AT_EPOCH><BSTAR>.23423E-3</BSTAR><MEAN_MOTION_DOT>.676E-5</MEAN_MOTION_DOT><MEAN_MOTION_DDOT>0</MEAN_MOTION_DDOT></tleParameters></data></segment></body></omm>
<omm id="CCSDS_OMM_VERS" version="2.0">
<header><CREATION_DATE/><ORIGINATOR/></header><body><segment><metadata><OBJECT_NAME>IRIDIUM 124</OBJECT_NAME><OBJECT_ID>2017-039H</OBJECT_ID><CENTER_NAME>EARTH</CENTER_NAME><REF_FRAME>TEME</REF_FRAME><TIME_SYSTEM>UTC</TIME_SYSTEM><MEAN_ELEMENT_THEORY>SGP4</MEAN_ELEMENT_THEORY></metadata><data><meanElements><EPOCH>2023-10-10T13:48:56.702592</EPOCH><MEAN_MOTION>14.43281685</MEAN_MOTION><ECCENTRICITY>.0002181</ECCENTRICITY><INCLINATION>86.4525</INCLINATION><RA_OF_ASC_NODE>340.2253</RA_OF_ASC_NODE><ARG_OF_PERICENTER>98.9291</ARG_OF_PERICENTER><MEAN_ANOMALY>261.2157</MEAN_ANOMALY></meanElements><tleParameters><EPHEMERIS_TYPE>0</EPHEMERIS_TYPE><CLASSIFICATION_TYPE>U</CLASSIFICATION_TYPE><NORAD_CAT_ID>42810</NORAD_CAT_ID><ELEMENT_SET_NO>999</ELEMENT_SET_NO><REV_AT_EPOCH>33367</REV_AT_EPOCH><BSTAR>.24534E-3</BSTAR><MEAN_MOTION_DOT>.845E-5</MEAN_MOTION_DOT><MEAN_MOTION_DDOT>0</MEAN_MOTION_DDOT></tleParameters></data></segment></body></omm>

</ndm>
